1 12442U 81041A   04293.54227245  .00000031  00000-0  21284-4 0  9991
2 12442 074.0551 017.7762 0009252 039.3660 320.8161 14.31406309223854
1 12442U 81041A   04293.75194031 +.00000036 +00000-0 +23473-4 0  9997
2 12442 074.0552 017.3950 0009243 039.2042 320.9774 14.31406402223881
1 12442U 81041A   04294.73039103 +.00000042 +00000-0 +25520-4 0  9996
2 12442 074.0550 015.6143 0009277 036.8271 323.3513 14.31406579224028
1 12442U 81041A   04295.70884145  .00000047  00000-0  27255-4 0  9990
2 12442 074.0546 013.8334 0009294 034.3617 325.8124 14.31406754224166
1 12442U 81041A   04296.75718157 +.00000042 +00000-0 +25484-4 0  9992
2 12442 074.0544 011.9255 0009305 031.9836 328.1877 14.31406847224315
1 12442U 81041A   04297.73563216  .00000038  00000-0  24135-4 0  9992
2 12442 074.0542 010.1450 0009346 029.7048 330.4631 14.31406932224450
1 12442U 81041A   04298.71408205 +.00000055 +00000-0 +30485-4 0  9991
2 12442 074.0542 008.3643 0009353 027.4876 332.6766 14.31407249224595
1 12442U 81041A   04299.69253180 +.00000070 +00000-0 +36176-4 0  9999
2 12442 074.0542 006.5839 0009392 025.1378 335.0226 14.31407584224733
1 12442U 81041A   04300.18175652  .00000083  00000-0  40993-4 0  9999
2 12442 074.0541 005.6936 0009403 023.8748 336.2839 14.31407810224802
1 12442U 81041A   04300.67098165 +.00000069 +00000-0 +35766-4 0  9992
2 12442 074.0538 004.8027 0009434 022.4692 337.6868 14.31407761224876
1 12442U 81041A   04301.64943139 +.00000067 +00000-0 +34941-4 0  9992
2 12442 074.0538 003.0223 0009429 020.4407 339.7117 14.31407928225013
1 12442U 81041A   04302.20854540  .00000066  00000-0  34658-4 0  9996
2 12442 074.0538 002.0048 0009444 019.2622 340.8877 14.31408024225091
1 12442U 81041A   04302.69777031 +.00000067 +00000-0 +34944-4 0  9997
2 12442 074.0537 001.1145 0009454 018.2458 341.9029 14.31408116225166
1 12442U 81041A   04303.67621935 +.00000086 +00000-0 +42249-4 0  9995
2 12442 074.0536 359.3340 0009499 016.1387 344.0063 14.31408509225301
1 12442U 81041A   04304.23533278  .00000101  00000-0  47678-4 0  9999
2 12442 074.0535 358.3163 0009518 014.7453 345.3970 14.31408788225380
1 12442U 81041A   04304.65466801 +.00000104 +00000-0 +49095-4 0  9990
2 12442 074.0535 357.5533 0009511 014.0026 346.1384 14.31408933225441
1 12442U 81041A   04305.63311678 +.00000112 +00000-0 +51886-4 0  9990
2 12442 074.0533 355.7725 0009555 011.7968 348.3405 14.31409260225586
1 12442U 81041A   04306.54167613  .00000108  00000-0  50500-4 0  9996
2 12442 074.0532 354.1191 0009538 009.8597 350.2735 14.31409473225711
1 12442U 81041A   04306.61156538 +.00000107 +00000-0 +50206-4 0  9990
2 12442 074.0532 353.9919 0009556 009.6393 350.4937 14.31409483225726
